[{"OBJECT_NAME":"FLOCK 4BE-27","OBJECT_ID":"2024-149AX","EPOCH":"2026-03-09T18:04:53.053248","MEAN_MOTION":15.32593322,"ECCENTRICITY":0.00027324,"INCLINATION":97.3862,"RA_OF_ASC_NODE":150.6783,"ARG_OF_PERICENTER":305.898,"MEAN_ANOMALY":54.2008,"EPHEMERIS_TYPE":0,"CLASSIFICATION_TYPE":"U","NORAD_CAT_ID":60513,"ELEMENT_SET_NO":999,"REV_AT_EPOCH":8690,"BSTAR":0.00036576028,"MEAN_MOTION_DOT":0.00011439,"MEAN_MOTION_DDOT":0},{"OBJECT_NAME":"STARLINK-33572","OBJECT_ID":"2025-015K","EPOCH":"2026-03-09T21:39:08.736480","MEAN_MOTION":15.30227181,"ECCENTRICITY":0.00010463,"INCLINATION":53.161,"RA_OF_ASC_NODE":321.4694,"ARG_OF_PERICENTER":75.9298,"MEAN_ANOMALY":284.1819,"EPHEMERIS_TYPE":0,"CLASSIFICATION_TYPE":"U","NORAD_CAT_ID":62767,"ELEMENT_SET_NO":999,"REV_AT_EPOCH":6445,"BSTAR":0.00086799094,"MEAN_MOTION_DOT":0.00025458,"MEAN_MOTION_DDOT":0}]
